ESTCUBE 1               
1 39161U 13021C   22288.17896591  .00002192  00000+0  34719-3 0  9995
2 39161  97.9007   2.2645 0010243  41.5218 318.6762 14.73187517507092
FENGYUN 3C              
1 39260U 13052A   22288.11731135  .00000144  00000+0  94050-4 0  9995
2 39260  98.4476 310.1359 0010034 292.8362  67.1759 14.15950465468858
CASSIOPE                
1 39265U 13055A   22288.11565229  .00017287  00000+0  45585-3 0  9996
2 39265  80.9623 140.2582 0610811 323.0331  33.0181 14.41468956469530
ZACUBE-1 (TSHEPISOSAT)  
1 39417U 13066B   22287.89954912  .00004329  00000+0  52634-3 0  9998
2 39417  97.6520 254.1156 0057689  14.6981 345.5894 14.82789570480824
CINEMA-3 (KHUSAT-2)     
1 39426U 13066L   22287.24574268  .00001353  00000+0  21452-3 0  9997
2 39426  97.8059 222.0623 0101831 214.6140 144.8411 14.70395700476728
TRITON-1                
1 39427U 13066M   22288.07172650  .00002438  00000+0  38458-3 0  9998
2 39427  97.8179 218.7058 0109734 241.9687 117.0386 14.69334219476533
DELFI-N3XT              
1 39428U 13066N   22287.35410194  .00004137  00000+0  63479-3 0  9996
2 39428  97.8179 216.6487 0114513 257.5322 101.3052 14.69784245475990
GOMX-1                  
1 39430U 13066Q   22288.15891467  .00003253  00000+0  58161-3 0  9994
2 39430  97.7981 188.4698 0149600  27.9010 333.0106 14.60474802473764
BRITE-PL1 (LEM)         
1 39431U 13066R   22287.48403271  .00000943  00000+0  20992-3 0  9996
2 39431  97.6880 130.5595 0200324 219.5418 139.1018 14.47450830469580
ICUBE-1                 
1 39432U 13066S   22287.73846423  .00004845  00000+0  47244-3 0  9999
2 39432  97.4737 285.3876 0029448 222.9228 136.9694 14.92569253482494
HUMSAT-D                
1 39433U 13066T   22287.77932362  .00006594  00000+0  60041-3 0  9995
2 39433  97.4525 293.1535 0028405 194.1734 165.8693 14.95170728484224
VELOX-PII               
1 39438U 13066Y   22287.63689479  .00003236  00000+0  42446-3 0  9992
2 39438  97.7075 245.2494 0070569  68.9699 291.9042 14.79231377478626
FIRST-MOVE              
1 39439U 13066Z   22288.17941953  .00009378  00000+0  10648-2 0  9992
2 39439  97.6517 257.1071 0062013   8.0059 352.2131 14.85106796480907
CUBEBUG-2 (LO-74)       
1 39440U 13066AA  22287.87826965  .00002957  00000+0  40146-3 0  9998
2 39440  97.7401 240.5127 0079796 103.7005 257.3106 14.77378355479111
NEE-02 KRYSAOR          
1 39441U 13066AB  22287.30852569  .00001881  00000+0  26589-3 0  9996
2 39441  97.7506 237.0774 0081591 119.6987 241.2376 14.76006216477569
FUNCUBE-1 (AO-73)       
1 39444U 13066AE  22287.89375520  .00005206  00000+0  61473-3 0  9996
2 39444  97.6399 256.5355 0056070   2.2916 357.8545 14.83973427479823
HINCUBE                 
1 39445U 13066AF  22287.96122087  .00004995  00000+0  59290-3 0  9991
2 39445  97.6412 256.4078 0056201   4.3942 355.7754 14.83768784479365
UWE-3                   
1 39446U 13066AG  22288.09915580  .00003967  00000+0  51017-3 0  9992
2 39446  97.7009 247.1001 0069640  59.9204 300.8890 14.79969350478740
AIST-1 (RS-41)          
1 39492U 13078C   22288.04151997  .00001800  00000+0  18967-3 0  9996
2 39492  82.4157 122.1913 0021119  71.0673 289.2830 14.88652104477574
SPROUT                  
1 39770U 14029E   22287.93068325  .00017933  00000+0  17468-2 0  9999
2 39770  97.9522  45.7846 0008792  55.2170 304.9874 14.92524387455477
UNISAT-6                
1 40012U 14033C   22287.70850753  .00002685  00000+0  39344-3 0  9990
2 40012  97.6632 109.3417 0058064 131.7820 228.8373 14.75226098447565
BUGSAT-1 (TITA)         
1 40014U 14033E   22287.98878837  .00003754  00000+0  32708-3 0  9990
2 40014  98.1477 291.3360 0030762   4.7861 355.3649 14.97198629454021
DUCHIFAT-1              
1 40021U 14033M   22287.35291717  .00007252  00000+0  68996-3 0  9990
2 40021  98.0253 239.8332 0012673  17.5505 342.6149 14.93685440452440
NANOSATC-BR1            
1 40024U 14033Q   22287.38685640  .00005683  00000+0  55993-3 0  9997
2 40024  97.9961 232.5890 0012422  23.7897 336.3893 14.92396223451713
QB50P1                  
1 40025U 14033R   22287.53440342  .00004735  00000+0  48329-3 0  9995
2 40025  97.9681 225.9320 0012940  32.2913 327.9094 14.91056824451501
DTUSAT-2                
1 40030U 14033W   22287.49833438  .00005083  00000+0  52614-3 0  9997
2 40030  97.9424 220.7965 0012316  29.7553 330.4363 14.90464324451378
QB50P2                  
1 40032U 14033Y   22287.53985360  .00004389  00000+0  45538-3 0  9991
2 40032  97.9426 220.8533 0012263  30.1093 330.0827 14.90441567451353
POLYITAN-1              
1 40042U 14033AJ  22287.34204742  .00004998  00000+0  50785-3 0  9995
2 40042  97.9789 227.0993 0014880  24.2814 335.9102 14.91195087451362
TIGRISAT                
1 40043U 14033AK  22288.15647665  .00002090  00000+0  30707-3 0  9994
2 40043  97.6569 110.9906 0059989 127.7385 232.9282 14.75267121447575
AISAT                   
1 40054U 14034B   22287.57048717  .00005256  00000+0  69670-3 0  9993
2 40054  98.3669 103.8579 0011397 296.4142  63.5898 14.80276701447097
CANX-4                  
1 40055U 14034C   22288.03003163  .00001395  00000+0  21225-3 0  9996
2 40055  98.3708  89.0011 0013704 342.4307  17.6425 14.75620703446383
CANX-5                  
1 40056U 14034D   22287.90127781  .00001424  00000+0  21647-3 0  9996
2 40056  98.3710  88.8472 0013694 342.9277  17.1469 14.75617050437142
VELOX-I                 
1 40057U 14034E   22288.09861067  .00004530  00000+0  61131-3 0  9993
2 40057  98.3712 105.5081 0009843 311.3160  48.7175 14.79613144447161
METEOR-M 2              
1 40069U 14037A   22288.11972097  .00000070  00000+0  51702-4 0  9997
2 40069  98.4303 300.4564 0005327 346.9365  13.1672 14.20722364428851
DX1                     
1 40071U 14037C   22288.11638544  .00001791  00000+0  23269-3 0  9993
2 40071  98.3888 162.6989 0007319 298.6640  61.3833 14.82054756447061
UKUBE-1                 
1 40074U 14037F   22288.10749721  .00004567  00000+0  53106-3 0  9992
2 40074  98.3640 174.9531 0002707 264.3772  95.7048 14.85859540447832
FIREBIRD 3              
1 40377U 15003B   22287.61227163  .00042919  00000+0  11394-2 0  9993
2 40377  99.0796 179.3220 0090979 341.6727  18.1238 15.33982924426653
FIREBIRD 4              
1 40378U 15003C   22287.43412404  .00041902  00000+0  11096-2 0  9998
2 40378  99.0805 179.3433 0090894 341.8337  17.9659 15.34072071426632
GRIFEX                  
1 40379U 15003D   22288.12887090  .00023197  00000+0  76402-3 0  9992
2 40379  99.0904 164.6965 0110913  25.9392 334.7342 15.25675597425861
CP10 (EXOCUBE)          
1 40380U 15003E   22287.39936319  .00012147  00000+0  44552-3 0  9995
2 40380  99.1030 156.0066 0120457  54.2120 307.0237 15.21522836425239
DEORBITSAIL             
1 40719U 15032E   22287.88604484  .00004226  00000+0  57860-3 0  9997
2 40719  97.7629 162.1731 0015528 342.6856  17.3824 14.78920356391530
NUDT-PHONESAT           
1 40900U 15049B   22288.09980556  .00058100  00000+0  13199-2 0  9994
2 40900  97.3936 307.1649 0007693 195.3850 199.2885 15.42796088393016
XW-2A                   
1 40903U 15049E   22288.21005833  .00046148  00000+0  58641-3 0  9998
2 40903  97.1639 347.2219 0008728  44.5761 350.0329 15.59222958397888
XW-2C                   
1 40906U 15049H   22288.09595973  .00010083  00000+0  46569-3 0  9991
2 40906  97.4957 290.6647 0011687 305.8483  54.1668 15.20336744391097
XW-2D                   
1 40907U 15049J   22288.07491245  .00012464  00000+0  56094-3 0  9996
2 40907  97.4956 290.7396 0010820 301.0317 130.0881 15.21181687391143
LILACSAT-2              
1 40908U 15049K   22288.14592788  .00006085  00000+0  31502-3 0  9998
2 40908  97.5218 287.6258 0014096 327.9693  96.2586 15.16505750390623
XW-2E                   
1 40909U 15049L   22288.12555492  .00019019  00000+0  74488-3 0  9999
2 40909  97.4653 295.6195 0009329 278.7748 154.4718 15.25802023391642
XW-2F                   
1 40910U 15049M   22288.15929862  .00018936  00000+0  75359-3 0  9995
2 40910  97.4733 294.8166 0010305 274.1567 150.2762 15.25260711391417
XW-2B                   
1 40911U 15049N   22288.10962228  .00012263  00000+0  55402-3 0  9998
2 40911  97.4934 291.3335 0010762 302.3034 130.3221 15.21052981391032
KAITUO 1B               
1 40912U 15049P   22288.17146302  .00021262  00000+0  76225-3 0  9998
2 40912  97.4346 299.1784 0010471 231.4373 193.0922 15.28694809392021
TIANWANG 1A (TW-1A)     
1 40928U 15051D   22288.06074328  .00136407  00000+0  98052-3 0  9994
2 40928  97.0267 310.4764 0002624 290.5924 125.1500 15.73210235396940
LAPAN-A2                
1 40931U 15052B   22287.91544614  .00001325  00000+0  94733-4 0  9995
2 40931   5.9964  36.8244 0013501  57.8980 302.2495 14.76887706381030
LQSAT                   
1 40958U 15057A   22288.13098868  .00000861  00000+0  13971-3 0  9997
2 40958  97.7378 328.9141 0016830 297.6957  62.2547 14.73463880377603
ATHENOXAT 1             
1 41168U 15077C   22288.12375545  .00038255  00000+0  14701-2 0  9991
2 41168  14.9823 281.6125 0009276 124.2785 299.8609 15.24425008378571
GALASSIA                
1 41170U 15077E   22287.65130284  .00022650  00000+0  90223-3 0  9996
2 41170  14.9883 277.2036 0010399 149.7278 210.3645 15.22827696378406
VELOX-II                
1 41171U 15077F   22287.82847258  .00017014  00000+0  78412-3 0  9996
2 41171  14.9926 355.7255 0007043 336.1834  23.8161 15.17602596377821
CHUBUSAT-2              
1 41338U 16012B   22287.85551576  .00003895  00000+0  28472-3 0  9992
2 41338  31.0044 343.4183 0013131 257.4637 102.4530 15.01830009365446
CHUBUSAT-3              
1 41339U 16012C   22288.17559616  .00004213  00000+0  30811-3 0  9997
2 41339  31.0116 338.2881 0013030 269.7431  90.1707 15.01877029365497
HORYU-4                 
1 41340U 16012D   22287.79653339  .00006735  00000+0  46784-3 0  9990
2 41340  31.0048 316.5911 0012699 308.0361  51.9129 15.04087713365708
